     2              NAVIGATION DATA                         RINEX VERSION / TYPE
CCRINEXN V1.6.0 UX  CDDIS               13-DEC-04 02:39     PGM / RUN BY / DATE 
IGS BROADCAST EPHEMERIS FILE                                COMMENT             
    0.9313D-08 -0.1490D-07 -0.5960D-07  0.1192D-06          ION ALPHA           
    0.9626D+05 -0.1475D+06 -0.1311D+06  0.9175D+06          ION BETA            
    0.000000000000D+00 0.621724893790D-14   233472     1301 DELTA-UTC: A0,A1,T,W
    13                                                      LEAP SECONDS        
                                                            END OF HEADER       
 1 04 12 12  0  0  0.0 0.377695541829D-03 0.170530256582D-11 0.000000000000D+00
    0.213000000000D+03-0.182281250000D+03 0.372444085220D-08-0.216406532171D+01
   -0.943802297115D-05 0.594300520606D-02 0.677816569805D-05 0.515363087273D+04
    0.000000000000D+00 0.176951289177D-06-0.610373058591D+00-0.260770320892D-07
    0.982134450048D+00 0.262375000000D+03-0.167038223970D+01-0.763424656844D-08
   -0.311441544219D-09 0.000000000000D+00 0.130100000000D+04 0.000000000000D+00
    0.200000000000D+01 0.000000000000D+00-0.372529029846D-08 0.213000000000D+03
   -0.600000000000D+02 0.400000000000D+01 0.000000000000D+00 0.000000000000D+00
 2 04 12 12  0  0  0.0-0.675921328366D-04 0.102318153950D-10 0.000000000000D+00
    0.203000000000D+03 0.161406250000D+03 0.448732977244D-08-0.498034789308D+00
    0.854022800922D-05 0.943703157827D-02 0.764615833759D-05 0.515364959717D+04
    0.000000000000D+00-0.121071934700D-06-0.273248097693D+01 0.260770320892D-07
    0.957545481590D+00 0.234312500000D+03 0.173335986823D+01-0.813176729218D-08
    0.146077513286D-09 0.000000000000D+00 0.130100000000D+04 0.000000000000D+00
    0.280000000000D+01 0.000000000000D+00-0.172294676304D-07 0.459000000000D+03
   -0.600000000000D+02 0.400000000000D+01 0.000000000000D+00 0.000000000000D+00
 3 04 12 12  0  0  0.0 0.680838711560D-04 0.306954461848D-11 0.000000000000D+00
    0.152000000000D+03-0.253125000000D+01 0.533522223342D-08-0.145363902396D+01
   -0.242143869400D-06 0.648442318197D-02 0.933744013309D-05 0.515370401382D+04
    0.000000000000D+00 0.800937414169D-07 0.242251336071D+01-0.122934579849D-06
    0.927495466275D+00 0.178625000000D+03 0.583500365292D+00-0.816605443466D-08
   -0.659313177326D-09 0.000000000000D+00 0.130100000000D+04 0.000000000000D+00
    0.200000000000D+01 0.000000000000D+00-0.419095158577D-08 0.408000000000D+03
    0.604770000000D+06 0.000000000000D+00 0.000000000000D+00 0.000000000000D+00
 4 04 12 12  0  0  0.0 0.509030651301D-03-0.193267624127D-10 0.000000000000D+00
    0.184000000000D+03 0.169750000000D+03 0.442375569575D-08 0.186034835507D+01
    0.905431807041D-05 0.699599622749D-02 0.784173607826D-05 0.515378741837D+04
    0.000000000000D+00 0.149011611939D-07-0.271239343812D+01 0.173225998879D-06
    0.957226138277D+00 0.226656250000D+03-0.185669802921D-01-0.800283335013D-08
    0.400016662300D-10 0.000000000000D+00 0.130100000000D+04 0.000000000000D+00
    0.200000000000D+01 0.000000000000D+00-0.605359673500D-08 0.440000000000D+03
   -0.600000000000D+02 0.400000000000D+01 0.000000000000D+00 0.000000000000D+00
 5 04 12 12  0  0  0.0 0.650635920465D-04 0.227373675443D-11 0.000000000000D+00
    0.770000000000D+02 0.781250000000D+01 0.554987403167D-08 0.153464768835D+01
    0.320374965668D-06 0.590747222304D-02 0.492669641972D-05 0.515363107681D+04
    0.000000000000D+00-0.102445483208D-06 0.137912095257D+01 0.558793544769D-08
    0.935784332317D+00 0.270062500000D+03 0.933254402752D+00-0.843106547343D-08
    0.192865176466D-09 0.000000000000D+00 0.130100000000D+04 0.000000000000D+00
    0.200000000000D+01 0.000000000000D+00-0.419095158577D-08 0.770000000000D+02
   -0.600000000000D+02 0.400000000000D+01 0.000000000000D+00 0.000000000000D+00
 6 04 12 12  0  0  0.0 0.451039057225D-03-0.158024704433D-10 0.000000000000D+00
    0.170000000000D+02 0.184375000000D+02 0.504378152232D-08 0.275973759259D+01
    0.843778252602D-06 0.629514944740D-02 0.102370977402D-04 0.515365625954D+04
    0.000000000000D+00 0.782310962677D-07 0.247703591376D+01-0.108033418655D-06
    0.935046976254D+00 0.170937500000D+03-0.194950467880D+01-0.789818613401D-08
   -0.714672626126D-09 0.000000000000D+00 0.130100000000D+04 0.000000000000D+00
    0.280000000000D+01 0.000000000000D+00-0.465661287308D-08 0.273000000000D+03
   -0.600000000000D+02 0.400000000000D+01 0.000000000000D+00 0.000000000000D+00
 7 04 12 12  0  0  0.0 0.161086209118D-03-0.278532752418D-10 0.000000000000D+00
    0.660000000000D+02 0.110937500000D+02 0.506699677504D-08-0.131056595618D+01
    0.843778252602D-06 0.129378468264D-01 0.970065593720D-05 0.515363607788D+04
    0.000000000000D+00 0.521540641785D-07 0.244955371466D+01 0.396743416786D-06
    0.936640903036D+00 0.180656250000D+03-0.181409176462D+01-0.810176604250D-08
   -0.670742224820D-09 0.000000000000D+00 0.130100000000D+04 0.000000000000D+00
    0.200000000000D+01 0.000000000000D+00-0.186264514923D-08 0.322000000000D+03
   -0.132000000000D+04 0.400000000000D+01 0.000000000000D+00 0.000000000000D+00
 8 04 12 12  0  0  0.0-0.155880115926D-04-0.795807864051D-12 0.000000000000D+00
    0.135000000000D+03-0.260000000000D+02 0.410374236591D-08 0.299151703585D+01
   -0.126659870148D-05 0.937189697288D-02 0.115353614092D-04 0.515359592628D+04
    0.000000000000D+00-0.447034835815D-07 0.443482910603D+00 0.838190317154D-07
    0.966990026582D+00 0.160281250000D+03 0.248566505601D+01-0.749352642117D-08
    0.646098341161D-09 0.100000000000D+01 0.130100000000D+04 0.000000000000D+00
    0.200000000000D+01 0.000000000000D+00-0.372529029846D-08 0.391000000000D+03
   -0.450000000000D+03 0.000000000000D+00 0.000000000000D+00 0.000000000000D+00
 9 04 12 12  0  0  0.0-0.190222635865D-04-0.181898940355D-11 0.000000000000D+00
    0.113000000000D+03-0.535000000000D+02 0.426589197724D-08 0.248495722309D+01
   -0.280886888504D-05 0.162698529894D-01 0.118892639875D-04 0.515369143105D+04
    0.000000000000D+00 0.912696123123D-07 0.371797146638D+00-0.175088644028D-06
    0.954133568956D+00 0.142375000000D+03 0.111352231045D+01-0.744602444252D-08
    0.743245244862D-09 0.000000000000D+00 0.130100000000D+04 0.000000000000D+00
    0.280000000000D+01 0.000000000000D+00-0.558793544769D-08 0.881000000000D+03
   -0.228000000000D+04 0.000000000000D+00 0.000000000000D+00 0.000000000000D+00
10 04 12 12  0  0  0.0 0.553065910935D-04 0.682121026330D-12 0.000000000000D+00
    0.150000000000D+03 0.415625000000D+01 0.449375861166D-08-0.208679097808D+00
    0.203028321266D-06 0.620457157493D-02-0.153481960297D-05 0.515356126213D+04
    0.000000000000D+00 0.614672899246D-07-0.167107120390D+01-0.260770320892D-07
    0.978752124932D+00 0.416156250000D+03 0.284806636551D+00-0.850892585949D-08
   -0.625026034843D-10 0.000000000000D+00 0.130100000000D+04 0.000000000000D+00
    0.200000000000D+01 0.000000000000D+00-0.232830643654D-08 0.406000000000D+03
   -0.300000000000D+02 0.400000000000D+01 0.000000000000D+00 0.000000000000D+00
11 04 12 12  0  0  0.0 0.174530316144D-03 0.341060513165D-11 0.000000000000D+00
    0.460000000000D+02 0.154906250000D+03 0.551987278200D-08-0.281312915490D+01
    0.810064375401D-05 0.375633663498D-02 0.987015664577D-05 0.515368516159D+04
    0.000000000000D+00-0.521540641785D-07-0.284963294011D+01-0.242143869400D-07
    0.904468351583D+00 0.160437500000D+03 0.126995861407D+00-0.835677666472D-08
    0.225009372544D-10 0.000000000000D+00 0.130100000000D+04 0.000000000000D+00
    0.000000000000D+00 0.000000000000D+00-0.121071934700D-07 0.460000000000D+02
    0.604770000000D+06 0.000000000000D+00 0.000000000000D+00 0.000000000000D+00
13 04 12 12  0  0  0.0-0.167614780366D-04 0.795807864051D-12 0.000000000000D+00
    0.196000000000D+03-0.156031250000D+03 0.369836833760D-08-0.152959791458D+00
   -0.823475420475D-05 0.221081334166D-02 0.682473182678D-05 0.515356356239D+04
    0.000000000000D+00-0.149011611939D-07-0.626770189049D+00 0.353902578354D-07
    0.986317586761D+00 0.260906250000D+03 0.939550966012D+00-0.777603818892D-08
   -0.267153985179D-09 0.000000000000D+00 0.130100000000D+04 0.000000000000D+00
    0.200000000000D+01 0.000000000000D+00-0.116415321827D-07 0.452000000000D+03
   -0.600000000000D+02 0.400000000000D+01 0.000000000000D+00 0.000000000000D+00
14 04 12 12  0  0  0.0-0.312444753945D-04-0.113686837722D-12 0.000000000000D+00
    0.250000000000D+02-0.186937500000D+03 0.385551774065D-08-0.131414829439D+01
   -0.977143645287D-05 0.173742603511D-02 0.628642737865D-05 0.515367639923D+04
    0.000000000000D+00 0.558793544769D-07-0.637068024898D+00 0.819563865662D-07
    0.980685230733D+00 0.271281250000D+03-0.182324160915D+01-0.786068457192D-08
   -0.346800159904D-09 0.000000000000D+00 0.130100000000D+04 0.000000000000D+00
    0.200000000000D+01 0.000000000000D+00-0.107102096081D-07 0.281000000000D+03
   -0.345000000000D+04 0.400000000000D+01 0.000000000000D+00 0.000000000000D+00
15 04 12 12  0  0  0.0 0.360204838216D-03 0.522959453519D-11 0.000000000000D+00
    0.700000000000D+02 0.192031250000D+03 0.426589197724D-08 0.273689191924D+01
    0.996701419353D-05 0.872515956871D-02 0.789202749729D-05 0.515361067009D+04
    0.000000000000D+00 0.106170773506D-06-0.265862872638D+01 0.149011611938D-06
    0.964255148046D+00 0.227750000000D+03 0.233407552579D+01-0.789640034534D-08
    0.158220876249D-09 0.000000000000D+00 0.130100000000D+04 0.000000000000D+00
    0.100000000000D+01 0.000000000000D+00-0.279396772385D-08 0.700000000000D+02
    0.604770000000D+06 0.000000000000D+00 0.000000000000D+00 0.000000000000D+00
